NORAD_CAT_ID,OBJECT_NAME,OBJECT_TYPE,EPOCH,MEAN_MOTION,ECCENTRICITY,INCLINATION,RA_OF_ASC_NODE,ARG_OF_PERICENTER,MEAN_ANOMALY,BSTAR,MEAN_MOTION_DOT,MEAN_MOTION_DDOT,TLE_LINE0,TLE_LINE1,TLE_LINE2,SEMIMAJOR_AXIS,PERIOD,APOGEE,PERIGEE,DECAYED
55427.0,STARLINK-5073,PAYLOAD,2024-05-16 18:49:26,14.9835248,0.0002386,70.0011,313.4163,273.5712,86.5174,-2.0404e-05,-3.36e-06,0.0,0 STARLINK-5073,1 55427U 23014AN  24137.78433491 -.00000336  00000-0 -20404-4 0  9997,2 55427  70.0011 313.4163 0002386 273.5712  86.5174 14.98352480 71475,6950.123,96.106,573.647,570.33,0.0
55427.0,STARLINK-5073,PAYLOAD,2024-05-16 22:01:42,14.98350401,0.0002637,70.0005,313.0808,270.9483,89.1374,-3.9221e-05,-5.61e-06,0.0,0 STARLINK-5073,1 55427U 23014AN  24137.91785460 -.00000561  00000-0 -39221-4 0  9995,2 55427  70.0005 313.0808 0002637 270.9483  89.1374 14.98350401 72434,6950.13,96.106,573.828,570.162,0.0
55427.0,STARLINK-5073,PAYLOAD,2024-05-17 04:26:15,14.98340457,0.0002508,69.9996,312.4057,278.0892,81.9982,-0.00011359,-1.448e-05,0.0,0 STARLINK-5073,1 55427U 23014AN  24138.18490068 -.00001448  00000-0 -11359-3 0  9998,2 55427  69.9996 312.4057 0002508 278.0892  81.9982 14.98340457 71534,6950.161,96.106,573.769,570.282,0.0
55427.0,STARLINK-5073,PAYLOAD,2024-05-17 12:26:55,14.98336515,0.0002535,69.9993,311.564,276.6492,83.4379,-0.00010782,-1.379e-05,0.0,0 STARLINK-5073,1 55427U 23014AN  24138.51870061 -.00001379  00000-0 -10782-3 0  9992,2 55427  69.9993 311.5640 0002535 276.6492  83.4379 14.98336515 72526,6950.173,96.107,573.8,570.276,0.0
55427.0,STARLINK-5073,PAYLOAD,2024-05-18 04:28:16,14.98336343,0.0002539,69.9996,309.8803,277.4294,82.6577,-0.00016974,-2.118e-05,0.0,0 STARLINK-5073,1 55427U 23014AN  24139.18629915 -.00002118  00000-0 -16974-3 0  9997,2 55427  69.9996 309.8803 0002539 277.4294  82.6577 14.98336343 71689,6950.173,96.107,573.803,570.274,0.0
55427.0,STARLINK-5073,PAYLOAD,2024-05-18 12:28:55,14.9834037,0.00028,70.0017,309.0414,268.4499,91.6339,-3.75e-06,-1.38e-06,0.0,0 STARLINK-5073,1 55427U 23014AN  24139.52009041 -.00000138  00000-0 -37500-5 0  9997,2 55427  70.0017 309.0414 0002800 268.4499  91.6339 14.98340370 71731,6950.161,96.106,573.972,570.08,0.0
55427.0,STARLINK-5073,PAYLOAD,2024-05-18 20:29:35,14.98344573,0.0002814,69.9999,308.1985,272.2979,87.7858,4.3827e-05,4.3e-06,0.0,0 STARLINK-5073,1 55427U 23014AN  24139.85388448  .00000430  00000-0  43827-4 0  9995,2 55427  69.9999 308.1985 0002814 272.2979  87.7858 14.98344573 72722,6950.148,96.106,573.969,570.057,0.0
55427.0,STARLINK-5073,PAYLOAD,2024-05-19 14:07:06,14.98311613,0.0002927,69.9996,306.3465,269.8097,90.2727,-8.4206e-05,-1.097e-05,0.0,0 STARLINK-5073,1 55427U 23014AN  24140.58826862 -.00001097  00000-0 -84206-4 0  9992,2 55427  69.9996 306.3465 0002927 269.8097  90.2727 14.98311613 72835,6950.25,96.108,574.149,570.08,0.0
55427.0,STARLINK-5073,PAYLOAD,2024-05-19 20:31:38,14.98316982,0.0002855,69.9996,305.6729,270.6656,89.4176,-6.4689e-05,-8.64e-06,0.0,0 STARLINK-5073,1 55427U 23014AN  24140.85530725 -.00000864  00000-0 -64689-4 0  9996,2 55427  69.9996 305.6729 0002855 270.6656  89.4176 14.98316982 71933,6950.233,96.108,574.082,570.114,0.0
55427.0,STARLINK-5073,PAYLOAD,2024-05-20 12:32:58,14.98333793,0.000297,69.9995,303.9898,269.6626,90.4192,2.9254e-05,2.56e-06,0.0,0 STARLINK-5073,1 55427U 23014AN  24141.52289561  .00000256  00000-0  29254-4 0  9992,2 55427  69.9995 303.9898 0002970 269.6626  90.4192 14.98333793 72034,6950.181,96.107,574.11,569.982,0.0
55427.0,STARLINK-5073,PAYLOAD,2024-05-20 20:33:37,14.98342345,0.0002985,69.9996,303.1472,269.267,90.8147,0.00010786,1.195e-05,0.0,0 STARLINK-5073,1 55427U 23014AN  24141.85668888  .00001195  00000-0  10786-3 0  9993,2 55427  69.9996 303.1472 0002985 269.2670  90.8147 14.98342345 72088,6950.155,96.106,574.094,569.945,0.0
55427.0,STARLINK-5073,PAYLOAD,2024-05-21 12:34:59,14.98317485,0.0002665,70.0016,301.4669,256.5832,103.503,0.00023425,2.702e-05,0.0,0 STARLINK-5073,1 55427U 23014AN  24142.52430225  .00002702  00000-0  23425-3 0  9999,2 55427  70.0016 301.4669 0002665 256.5832 103.5030 14.98317485 72188,6950.232,96.108,573.949,570.244,0.0
55427.0,STARLINK-5073,PAYLOAD,2024-05-21 14:11:07,14.98318445,0.0002625,70.0014,301.2993,259.457,100.6293,0.00020788,2.388e-05,0.0,0 STARLINK-5073,1 55427U 23014AN  24142.59106284  .00002388  00000-0  20788-3 0  9990,2 55427  70.0014 301.2993 0002625 259.4570 100.6293 14.98318445 73133,6950.229,96.108,573.918,570.269,0.0
55427.0,STARLINK-5073,PAYLOAD,2024-05-21 20:35:40,14.98318934,0.0002509,70.0011,300.6254,250.2008,109.8881,0.00016306,1.853e-05,0.0,0 STARLINK-5073,1 55427U 23014AN  24142.85810444  .00001853  00000-0  16306-3 0  9996,2 55427  70.0011 300.6254 0002509 250.2008 109.8881 14.98318934 73170,6950.227,96.108,573.836,570.348,0.0
55427.0,STARLINK-5073,PAYLOAD,2024-05-22 12:37:00,14.98333438,0.000284,70.0001,298.9416,260.6054,99.4784,1.3793e-05,7.2e-07,0.0,0 STARLINK-5073,1 55427U 23014AN  24143.52569962  .00000072  00000-0  13793-4 0  9997,2 55427  70.0001 298.9416 0002840 260.6054  99.4784 14.98333438 72331,6950.182,96.107,574.021,570.073,0.0
55427.0,STARLINK-5073,PAYLOAD,2024-05-22 20:37:40,14.98334549,0.0002803,70.0001,298.0992,260.0,100.0843,3.5418e-05,3.3e-06,0.0,0 STARLINK-5073,1 55427U 23014AN  24143.85949781  .00000330  00000-0  35418-4 0  9999,2 55427  70.0001 298.0992 0002803 260.0000 100.0843 14.98334549 73324,6950.179,96.107,573.992,570.096,0.0
55427.0,STARLINK-5073,PAYLOAD,2024-05-23 12:39:01,14.98329765,0.0002717,70.0001,296.4156,261.4692,98.6159,9.2764e-05,1.014e-05,0.0,0 STARLINK-5073,1 55427U 23014AN  24144.52709972  .00001014  00000-0  92764-4 0  9997,2 55427  70.0001 296.4156 0002717 261.4692  98.6159 14.98329765 72486,6950.194,96.107,573.947,570.17,0.0
55427.0,STARLINK-5073,PAYLOAD,2024-05-23 14:15:09,14.98329689,0.0002724,70.0001,296.2472,261.1042,98.9809,8.9717e-05,9.78e-06,0.0,0 STARLINK-5073,1 55427U 23014AN  24144.59385984  .00000978  00000-0  89717-4 0  9999,2 55427  70.0001 296.2472 0002724 261.1042  98.9809 14.98329689 73435,6950.194,96.107,573.952,570.166,0.0
55427.0,STARLINK-5073,PAYLOAD,2024-05-23 20:39:41,14.98333138,0.0002701,70.0002,295.5736,260.877,99.2084,0.00012534,1.403e-05,0.0,0 STARLINK-5073,1 55427U 23014AN  24144.86089706  .00001403  00000-0  12534-3 0  9998,2 55427  70.0002 295.5736 0002701 260.8770  99.2084 14.98333138 73477,6950.183,96.107,573.925,570.171,0.0
55427.0,STARLINK-5073,PAYLOAD,2024-05-24 12:41:02,14.98328692,0.0002631,70.0001,293.8898,256.3752,103.7114,3.9109e-05,3.74e-06,0.0,0 STARLINK-5073,1 55427U 23014AN  24145.52850109  .00000374  00000-0  39109-4 0  9999,2 55427  70.0001 293.8898 0002631 256.3752 103.7114 14.98328692 72639,6950.197,96.107,573.891,570.233,0.0
55427.0,STARLINK-5073,PAYLOAD,2024-05-24 14:17:10,14.98328817,0.000263,70.0001,293.7215,256.4561,103.6305,3.843e-05,3.66e-06,0.0,0 STARLINK-5073,1 55427U 23014AN  24145.59526102  .00000366  00000-0  38430-4 0  9996,2 55427  70.0001 293.7215 0002630 256.4561 103.6305 14.98328817 73584,6950.197,96.107,573.889,570.234,0.0
55427.0,STARLINK-5073,PAYLOAD,2024-05-24 20:41:42,14.98331338,0.0002609,70.0002,293.048,255.6838,104.4031,6.1489e-05,6.41e-06,0.0,0 STARLINK-5073,1 55427U 23014AN  24145.86229861  .00000641  00000-0  61489-4 0  9994,2 55427  70.0002 293.0480 0002609 255.6838 104.4031 14.98331338 73628,6950.189,96.107,573.867,570.24,0.0
55427.0,STARLINK-5073,PAYLOAD,2024-05-25 12:43:03,14.98326747,0.0002513,70.0005,291.365,249.8192,110.2697,1.0961e-05,3.8e-07,0.0,0 STARLINK-5073,1 55427U 23014AN  24146.52990299  .00000038  00000-0  10961-4 0  9997,2 55427  70.0005 291.3650 0002513 249.8192 110.2697 14.98326747 72780,6950.203,96.107,573.815,570.321,0.0
55427.0,STARLINK-5073,PAYLOAD,2024-05-26 03:08:15,14.98346382,0.0002905,69.9995,289.85,275.7007,84.3821,9.6829e-05,1.063e-05,0.0,0 STARLINK-5073,1 55427U 23014AN  24147.13072949  .00001063  00000-0  96829-4 0  9994,2 55427  69.9995 289.8500 0002905 275.7007  84.3821 14.98346382 72876,6950.142,96.106,574.026,569.988,0.0
55427.0,STARLINK-5073,PAYLOAD,2024-05-26 12:45:03,14.98337374,0.0003074,69.9992,288.8389,270.0871,89.9935,0.00017332,1.976e-05,0.0,0 STARLINK-5073,1 55427U 23014AN  24147.53129159  .00001976  00000-0  17332-3 0  9998,2 55427  69.9992 288.8389 0003074 270.0871  89.9935 14.98337374 72937,6950.17,96.107,574.172,569.899,0.0
55427.0,STARLINK-5073,PAYLOAD,2024-05-26 14:21:11,14.98337919,0.0003031,69.9994,288.6706,268.9285,91.1526,0.00018194,2.079e-05,0.0,0 STARLINK-5073,1 55427U 23014AN  24147.59805085  .00002079  00000-0  18194-3 0  9995,2 55427  69.9994 288.6706 0003031 268.9285  91.1526 14.98337919 73889,6950.168,96.106,574.14,569.927,0.0
55427.0,STARLINK-5073,PAYLOAD,2024-05-26 19:09:30,14.98399459,0.0003051,69.9998,288.1647,275.9126,84.1685,0.0008102,9.605e-05,0.0,0 STARLINK-5073,1 55427U 23014AN  24147.79827495  .00009605  00000-0  81020-3 0  9996,2 55427  69.9998 288.1647 0003051 275.9126  84.1685 14.98399459 72970,6949.978,96.103,573.964,569.723,0.0
55427.0,STARLINK-5073,PAYLOAD,2024-05-27 12:47:04,14.98334983,0.0003363,69.999,286.3153,283.2925,76.7859,5.9631e-05,6.19e-06,0.0,0 STARLINK-5073,1 55427U 23014AN  24148.53268732  .00000619  00000-0  59631-4 0  9992,2 55427  69.9990 286.3153 0003363 283.2925  76.7859 14.98334983 73083,6950.177,96.107,574.38,569.705,0.0
55427.0,STARLINK-5073,PAYLOAD,2024-05-27 14:23:12,14.98333797,0.0003335,69.9992,286.148,280.3054,79.7729,4.3804e-05,4.3e-06,0.0,0 STARLINK-5073,1 55427U 23014AN  24148.59944792  .00000430  00000-0  43804-4 0  9991,2 55427  69.9992 286.1480 0003335 280.3054  79.7729 14.98333797 74033,6950.181,96.107,574.364,569.728,0.0
55427.0,STARLINK-5073,PAYLOAD,2024-05-27 19:11:36,14.9833411,0.0003166,69.9992,285.6421,275.1167,84.9631,6.1213e-05,6.37e-06,0.0,0 STARLINK-5073,1 55427U 23014AN  24148.79972629  .00000637  00000-0  61213-4 0  9996,2 55427  69.9992 285.6421 0003166 275.1167  84.9631 14.98334110 74064,6950.18,96.107,574.246,569.845,0.0
